{
  "type": "FeatureCollection",
  "features": [
    {
      "type": "Feature",
      "properties": {
        "norad_id": 65731,
        "name": "1998-067XK",
        "group": "stations",
        "lat": -3.4270181040169083,
        "lon": -94.6354035808619,
        "alt_km": 368.40923934290004,
        "timestamp": "2025-12-23T11:34:46.979338+00:00",
        "meta_object_name": "1998-067XK",
        "meta_object_id": "1998-067XK",
        "meta_epoch": "2025-12-22T11:50:52.395936",
        "meta_mean_motion": 15.67550975,
        "meta_eccentricity": 0.00048767,
        "meta_inclination": 51.6296,
        "meta_ra_of_asc_node": 87.6784,
        "meta_arg_of_pericenter": 307.2802,
        "meta_mean_anomaly": 52.7749,
        "meta_ephemeris_type": 0,
        "meta_classification_type": "U",
        "meta_norad_cat_id": 65731,
        "meta_element_set_no": 999,
        "meta_rev_at_epoch": 1467,
        "meta_bstar": 0.00098825287,
        "meta_mean_motion_dot": 0.00110692,
        "meta_mean_motion_ddot": 0,
        "tle_line1": "1 65731U 98067XK  25356.49366199  .00110692  00000+0  98825-3 0  9993",
        "tle_line2": "2 65731  51.6296  87.6784 0004876 307.2802  52.7749 15.67550975 14672"
      },
      "geometry": {
        "type": "Point",
        "coordinates": [
          -94.6354035808619,
          -3.4270181040169083
        ]
      }
    },
    {
      "type": "Feature",
      "properties": {
        "norad_id": 65732,
        "name": "RSP-03",
        "group": "stations",
        "lat": -50.23760181177075,
        "lon": 9.436401090668975,
        "alt_km": 356.5469337459954,
        "timestamp": "2025-12-23T11:34:46.979350+00:00",
        "meta_object_name": "RSP-03",
        "meta_object_id": "1998-067XL",
        "meta_epoch": "2025-12-23T01:13:43.553856",
        "meta_mean_motion": 15.71201604,
        "meta_eccentricity": 0.0005883,
        "meta_inclination": 51.6262,
        "meta_ra_of_asc_node": 83.8881,
        "meta_arg_of_pericenter": 317.6562,
        "meta_mean_anomaly": 42.3981,
        "meta_ephemeris_type": 0,
        "meta_classification_type": "U",
        "meta_norad_cat_id": 65732,
        "meta_element_set_no": 999,
        "meta_rev_at_epoch": 1478,
        "meta_bstar": 0.001119,
        "meta_mean_motion_dot": 0.00146583,
        "meta_mean_motion_ddot": 0,
        "tle_line1": "1 65732U 98067XL  25357.05119854  .00146583  00000+0  11190-2 0  9998",
        "tle_line2": "2 65732  51.6262  83.8881 0005883 317.6562  42.3981 15.71201604 14781"
      },
      "geometry": {
        "type": "Point",
        "coordinates": [
          9.436401090668975,
          -50.23760181177075
        ]
      }
    },
    {
      "type": "Feature",
      "properties": {
        "norad_id": 65733,
        "name": "GHS-01",
        "group": "stations",
        "lat": 44.01997830200844,
        "lon": -150.200081240133,
        "alt_km": 329.60144109718476,
        "timestamp": "2025-12-23T11:34:46.979360+00:00",
        "meta_object_name": "GHS-01",
        "meta_object_id": "1998-067XM",
        "meta_epoch": "2025-12-22T16:51:43.023456",
        "meta_mean_motion": 15.79178849,
        "meta_eccentricity": 0.00088219,
        "meta_inclination": 51.6291,
        "meta_ra_of_asc_node": 83.8081,
        "meta_arg_of_pericenter": 342.1592,
        "meta_mean_anomaly": 17.9098,
        "meta_ephemeris_type": 0,
        "meta_classification_type": "U",
        "meta_norad_cat_id": 65733,
        "meta_element_set_no": 999,
        "meta_rev_at_epoch": 1475,
        "meta_bstar": 0.0013662085,
        "meta_mean_motion_dot": 0.00257457,
        "meta_mean_motion_ddot": 0,
        "tle_line1": "1 65733U 98067XM  25356.70258129  .00257457  00000+0  13662-2 0  9998",
        "tle_line2": "2 65733  51.6291  83.8081 0008821 342.1592  17.9098 15.79178849 14753"
      },
      "geometry": {
        "type": "Point",
        "coordinates": [
          -150.200081240133,
          44.01997830200844
        ]
      }
    },
    {
      "type": "Feature",
      "properties": {
        "norad_id": 65941,
        "name": "YOTSUBA-KULOVER",
        "group": "stations",
        "lat": 36.94059130947723,
        "lon": 122.49291111060771,
        "alt_km": 379.69039904043984,
        "timestamp": "2025-12-23T11:34:46.979369+00:00",
        "meta_object_name": "YOTSUBA-KULOVER",
        "meta_object_id": "1998-067XN",
        "meta_epoch": "2025-12-22T12:18:58.548960",
        "meta_mean_motion": 15.60714996,
        "meta_eccentricity": 0.00021092,
        "meta_inclination": 51.6295,
        "meta_ra_of_asc_node": 90.8089,
        "meta_arg_of_pericenter": 341.8055,
        "meta_mean_anomaly": 18.2862,
        "meta_ephemeris_type": 0,
        "meta_classification_type": "U",
        "meta_norad_cat_id": 65941,
        "meta_element_set_no": 999,
        "meta_rev_at_epoch": 1138,
        "meta_bstar": 0.00080270144,
        "meta_mean_motion_dot": 0.00068061,
        "meta_mean_motion_ddot": 0,
        "tle_line1": "1 65941U 98067XN  25356.51317765  .00068061  00000+0  80270-3 0  9991",
        "tle_line2": "2 65941  51.6295  90.8089 0002109 341.8055  18.2862 15.60714996 11385"
      },
      "geometry": {
        "type": "Point",
        "coordinates": [
          122.49291111060771,
          36.94059130947723
        ]
      }
    },
    {
      "type": "Feature",
      "properties": {
        "norad_id": 65942,
        "name": "BOTAN",
        "group": "stations",
        "lat": 10.314475094829739,
        "lon": -103.36063787276456,
        "alt_km": 374.1850856954725,
        "timestamp": "2025-12-23T11:34:46.979378+00:00",
        "meta_object_name": "BOTAN",
        "meta_object_id": "1998-067XP",
        "meta_epoch": "2025-12-22T07:17:02.509728",
        "meta_mean_motion": 15.64805517,
        "meta_eccentricity": 0.00031122,
        "meta_inclination": 51.6283,
        "meta_ra_of_asc_node": 90.9078,
        "meta_arg_of_pericenter": 318.7343,
        "meta_mean_anomaly": 41.3416,
        "meta_ephemeris_type": 0,
        "meta_classification_type": "U",
        "meta_norad_cat_id": 65942,
        "meta_element_set_no": 999,
        "meta_rev_at_epoch": 1136,
        "meta_bstar": 0.0012003898,
        "meta_mean_motion_dot": 0.0012058,
        "meta_mean_motion_ddot": 0,
        "tle_line1": "1 65942U 98067XP  25356.30350127  .00120580  00000+0  12004-2 0  9992",
        "tle_line2": "2 65942  51.6283  90.9078 0003112 318.7343  41.3416 15.64805517 11364"
      },
      "geometry": {
        "type": "Point",
        "coordinates": [
          -103.36063787276456,
          10.314475094829739
        ]
      }
    },
    {
      "type": "Feature",
      "properties": {
        "norad_id": 65943,
        "name": "E-KAGAKU-1",
        "group": "stations",
        "lat": 36.574815630922366,
        "lon": 121.93694836011305,
        "alt_km": 380.60211376266216,
        "timestamp": "2025-12-23T11:34:46.979388+00:00",
        "meta_object_name": "E-KAGAKU-1",
        "meta_object_id": "1998-067XQ",
        "meta_epoch": "2025-12-22T10:46:55.533504",
        "meta_mean_motion": 15.60710313,
        "meta_eccentricity": 0.00012968,
        "meta_inclination": 51.6319,
        "meta_ra_of_asc_node": 91.1385,
        "meta_arg_of_pericenter": 295.9007,
        "meta_mean_anomaly": 64.1852,
        "meta_ephemeris_type": 0,
        "meta_classification_type": "U",
        "meta_norad_cat_id": 65943,
        "meta_element_set_no": 999,
        "meta_rev_at_epoch": 1137,
        "meta_bstar": 0.00086344374,
        "meta_mean_motion_dot": 0.00073283,
        "meta_mean_motion_ddot": 0,
        "tle_line1": "1 65943U 98067XQ  25356.44925386  .00073283  00000+0  86344-3 0  9999",
        "tle_line2": "2 65943  51.6319  91.1385 0001296 295.9007  64.1852 15.60710313 11376"
      },
      "geometry": {
        "type": "Point",
        "coordinates": [
          121.93694836011305,
          36.574815630922366
        ]
      }
    },
    {
      "type": "Feature",
      "properties": {
        "norad_id": 66052,
        "name": "HRC MONOBLOCK CAMERA",
        "group": "stations",
        "lat": 4.02513779614784,
        "lon": -95.28352124549295,
        "alt_km": 401.97195865805406,
        "timestamp": "2025-12-23T11:34:46.979397+00:00",
        "meta_object_name": "HRC MONOBLOCK CAMERA",
        "meta_object_id": "1998-067XR",
        "meta_epoch": "2025-12-22T16:19:14.073600",
        "meta_mean_motion": 15.54806882,
        "meta_eccentricity": 0.00022738,
        "meta_inclination": 51.631,
        "meta_ra_of_asc_node": 91.9195,
        "meta_arg_of_pericenter": 231.7536,
        "meta_mean_anomaly": 128.3251,
        "meta_ephemeris_type": 0,
        "meta_classification_type": "U",
        "meta_norad_cat_id": 66052,
        "meta_element_set_no": 999,
        "meta_rev_at_epoch": 1038,
        "meta_bstar": 0.00055608481,
        "meta_mean_motion_dot": 0.00037432,
        "meta_mean_motion_ddot": 0,
        "tle_line1": "1 66052U 98067XR  25356.68002400  .00037432  00000+0  55608-3 0  9995",
        "tle_line2": "2 66052  51.6310  91.9195 0002273 231.7536 128.3251 15.54806882 10383"
      },
      "geometry": {
        "type": "Point",
        "coordinates": [
          -95.28352124549295,
          4.02513779614784
        ]
      }
    }
  ]
}